ONEWEB-0171             
1 48070U 21025AE  25350.95382907  .00000055  00000+0  11625-3 0  9994
2 48070  87.8970 356.4587 0001742  86.3661 273.7667 13.13470963229695
ONEWEB-0172             
1 48071U 21025AF  25350.93351000  .00000288  00000+0  75245-3 0  9999
2 48071  87.8987 356.4458 0001672  85.0586 275.0734 13.13471564230583
ONEWEB-0174             
1 48072U 21025AG  25350.99106122  .00000114  00000+0  27721-3 0  9993
2 48072  87.8976 356.4379 0001622  94.3902 265.7413 13.13471875229914
ONEWEB-0175             
1 48073U 21025AH  25350.94535989  .00000239  00000+0  62073-3 0  9993
2 48073  87.8984 356.4169 0001871  79.7865 280.3475 13.13470871229569
ONEWEB-0177             
1 48074U 21025AJ  25350.95721388  .00000000  00000+0 -35087-4 0  9998
2 48074  87.8986 356.4338 0001585  92.5243 267.6068 13.13471180229756
ONEWEB-0178             
1 48075U 21025AK  25350.97596750 -.00000243  00000+0 -70056-3 0  9998
2 48075  87.8971 356.4706 0001638  81.5707 278.5608 13.13471373229803
ONEWEB-0108             
1 48076U 21025AL  25350.93522002  .00000354  00000+0  93365-3 0  9993
2 48076  87.8985 356.4278 0001884  97.1389 262.9955 13.13471491229729
ONEWEB-0169             
1 48077U 21025AM  25350.96736605 -.00000284  00000+0 -81255-3 0  9992
2 48077  87.8977 356.4423 0001892  96.6855 263.4490 13.13468279228385
